{
  "type": "FeatureCollection",
  "name": "india_coastline_simplified",
  "crs": {
    "type": "name",
    "properties": {
      "name": "urn:ogc:def:crs:OGC:1.3:CRS84"
    }
  },
  "features": [
    {
      "type": "Feature",
      "properties": {
        "name": "Mainland India Coastline Polygon",
        "region": "South Asia"
      },
      "geometry": {
        "type": "Polygon",
        "coordinates": [
          [
            [68.0, 24.0],
            [68.8, 23.6],
            [68.9, 22.4],
            [69.6, 21.6],
            [70.3, 20.8],
            [70.9, 20.7],
            [72.2, 21.7],
            [72.7, 21.1],
            [72.8, 18.9],
            [73.3, 17.0],
            [73.8, 15.5],
            [74.1, 14.8],
            [74.8, 12.9],
            [76.2, 9.9],
            [76.9, 8.5],
            [77.5, 8.1],
            [79.3, 9.3],
            [79.8, 10.3],
            [79.8, 11.9],
            [80.3, 13.1],
            [80.1, 14.4],
            [81.1, 16.2],
            [83.3, 17.7],
            [85.8, 19.8],
            [88.2, 21.6],
            [90.0, 26.0],
            [85.0, 27.0],
            [78.0, 30.0],
            [72.0, 32.0],
            [68.0, 28.0],
            [68.0, 24.0]
          ]
        ]
      }
    },
    {
      "type": "Feature",
      "properties": {
        "name": "Sri Lanka Landmass Polygon",
        "region": "South Asia"
      },
      "geometry": {
        "type": "Polygon",
        "coordinates": [
          [
            [79.7, 9.8],
            [80.3, 9.8],
            [81.9, 8.5],
            [81.8, 6.9],
            [81.1, 6.0],
            [80.2, 6.0],
            [79.7, 7.0],
            [79.7, 8.5],
            [79.7, 9.8]
          ]
        ]
      }
    }
  ]
}
